STARLINK-1172           
1 45074U 20006AG  26199.80347096  .00027233  00000+0  63480-3 0  9992
2 45074  53.1540   3.1835 0001950  85.6748 274.4481 15.42075371357025
STARLINK-1153           
1 45080U 20006AN  26200.17917169  .00036940  00000+0  88437-3 0  9990
2 45080  53.1578   2.2855 0003620  72.3750 287.7651 15.41111612357076
STARLINK-1151           
1 45081U 20006AP  26200.60876991  .00360984  71691-4  47486-3 0  9992
2 45081  53.0415 298.7971 0012482 341.0495  19.0071 16.06155066357968
STARLINK-1185           
1 45087U 20006AV  26200.40345389  .00035523  00000+0  61567-3 0  9993
2 45087  53.1568 338.6871 0001128 176.8104 183.2913 15.50580808357427
STARLINK-1183           
1 45088U 20006AW  26200.42183253  .00028509  00000+0  75399-3 0  9990
2 45088  53.1583 347.7892 0001578 173.7627 186.3397 15.38205187357299
STARLINK-1152           
1 45096U 20006BE  26200.45835998  .00039685  00000+0  60931-3 0  9995
2 45096  53.0309 297.5736 0004158 304.9540  55.1079 15.53901808357976
STARLINK-1184           
1 45098U 20006BG  26200.49364769  .00012842  00000+0  67494-3 0  9991
2 45098  53.0543   7.3948 0004001 158.1838 201.9326 15.16020873356996
STARLINK-1193           
1 45100U 20006BJ  26200.46481224  .00038624  00000+0  28975-3 0  9995
2 45100  53.0453 303.7750 0003839  60.3261 299.8139 15.72242997357888
STARLINK-1143           
1 45179U 20012B   26199.76765721  .00817410  11756-4  48350-3 0  9997
2 45179  53.0264  29.0960 0008977 283.8706  76.1332 16.17835108356689
STARLINK-1202           
1 45183U 20012F   26200.56745546  .00025857  00000+0  69155-3 0  9993
2 45183  53.1540 143.9111 0004669  41.9182 318.2179 15.37906275355189
STARLINK-1216           
1 45185U 20012H   26200.66670139  .00100881  00000+0  24306-2 0  9990
2 45185  53.1541 143.1668 0001113  76.5675 298.0639 15.40460285  5787
STARLINK-1225           
1 45187U 20012K   26200.14455945  .00031055  00000+0  81553-3 0  9995
2 45187  53.1548 146.1055 0005044  47.6459 312.4972 15.38369693355108
STARLINK-1230           
1 45189U 20012M   26200.54925869  .00027592  00000+0  72799-3 0  9991
2 45189  53.1533 144.3105 0004766  49.4784 310.6634 15.38289174352399
STARLINK-1234           
1 45190U 20012N   26199.75649031  .00093058  00000+0  35769-3 0  9993
2 45190  53.0331  34.5703 0003441 273.5153  86.5477 15.86629447356504
STARLINK-1269           
1 45197U 20012V   26200.54340012  .00027398  00000+0  72349-3 0  9996
2 45197  53.1535 144.1707 0003428  60.0796 300.0548 15.38270910355143
STARLINK-1154           
1 45198U 20012W   26200.41264100  .00027599  00000+0  25917-3 0  9998
2 45198  53.0403  90.5394 0004051 104.8681 255.2784 15.66969985355822
STARLINK-1199           
1 45201U 20012Z   26200.51501735  .00027796  00000+0  73352-3 0  9997
2 45201  53.1548 128.5794 0005431  58.8832 301.2704 15.38277011355389
STARLINK-1209           
1 45206U 20012AE  26200.60366274  .00045988  00000+0  30257-3 0  9999
2 45206  53.0346  48.0169 0001583 251.9894 108.0953 15.75233782355544
STARLINK-1231           
1 45212U 20012AL  26200.11726817  .00019703  00000+0  67262-3 0  9997
2 45212  53.0378 127.4311 0002880 113.2985 246.8317 15.30339348355292
STARLINK-1271           
1 45217U 20012AR  26200.18268922  .00028524  00000+0  74856-3 0  9995
2 45217  53.1539 130.2114 0005067  63.7683 296.3841 15.38435021355334
STARLINK-1191           
1 45222U 20012AW  26200.04968909  .00032531  00000+0  73401-3 0  9996
2 45222  53.1524 102.5887 0002669  48.4140 311.7095 15.42955548355717
STARLINK-1212           
1 45223U 20012AX  26200.62770350  .00045161  00000+0  31515-3 0  9995
2 45223  53.0382  63.5904 0001200 219.2108 140.8824 15.73876956356280
STARLINK-1215           
1 45225U 20012AZ  26200.11354217  .00028578  00000+0  74737-3 0  9997
2 45225  53.1539 104.7623 0005153  67.7171 292.4380 15.38540956355649
STARLINK-1221           
1 45227U 20012BB  26200.42736381  .00008439  00000+0  17487-3 0  9992
2 45227  53.0648   3.2075 0002875  73.9204 286.2120 15.46645032357060
STARLINK-1222           
1 45228U 20012BC  26200.61937296  .00325125  00000+0  39731-2 0  9991
2 45228  53.0512  66.2948 0001551  38.3000 321.8121 15.58813668356137
STARLINK-1226           
1 45229U 20012BD  26200.40941647  .00035335  00000+0  65979-3 0  9999
2 45229  53.1525  96.6305 0004725  70.0341 290.1176 15.48451520355720
STARLINK-1227           
1 45230U 20012BE  26200.09410176  .00038440  00000+0  71589-3 0  9998
2 45230  53.1504  98.2083 0004523  63.0421 297.1049 15.48486720355790
STARLINK-1246           
1 45235U 20012BK  26200.54618429  .00026481  00000+0  69348-3 0  9996
2 45235  53.1525 143.7431 0005016  31.1650 328.9651 15.38541869355202
STARLINK-1270           
1 45237U 20012BM  26200.63031857  .00040714  00000+0  29758-3 0  9998
2 45237  53.0381  65.5613 0000976 209.2884 150.8079 15.72839558356258
STARLINK-1279           
1 45360U 20019A   26200.45531980  .00108664  00000+0  38475-3 0  9999
2 45360  53.0309 165.3944 0003554  62.2123 297.9261 15.88236881351392
