OBJECT_NAME,OBJECT_ID,EPOCH,MEAN_MOTION,ECCENTRICITY,INCLINATION,RA_OF_ASC_NODE,ARG_OF_PERICENTER,MEAN_ANOMALY,EPHEMERIS_TYPE,CLASSIFICATION_TYPE,NORAD_CAT_ID,ELEMENT_SET_NO,REV_AT_EPOCH,BSTAR,MEAN_MOTION_DOT,MEAN_MOTION_DDOT
STARLINK-1172,2020-006AG,2026-07-18T19:16:59.890944,15.42075371,.00019504,53.1540,3.1835,85.6748,274.4481,0,U,45074,999,35702,.63480415E-3,.27233E-3,0
STARLINK-1153,2020-006AN,2026-07-19T04:18:00.434016,15.41111612,.00036201,53.1578,2.2855,72.3750,287.7651,0,U,45080,999,35707,.88437404E-3,.3694E-3,0
STARLINK-1151,2020-006AP,2026-07-19T14:36:37.720224,16.06155066,.00124825,53.0415,298.7971,341.0495,19.0071,0,U,45081,999,35796,.47485978E-3,.360984E-2,.71691124E-4
STARLINK-1185,2020-006AV,2026-07-19T09:40:58.416096,15.50580808,.00011282,53.1568,338.6871,176.8104,183.2913,0,U,45087,999,35742,.61566963E-3,.35523E-3,0
STARLINK-1183,2020-006AW,2026-07-19T10:07:26.330592,15.38205187,.00015785,53.1583,347.7892,173.7627,186.3397,0,U,45088,999,35729,.75399202E-3,.28509E-3,0
STARLINK-1152,2020-006BE,2026-07-19T11:00:02.302272,15.53901808,.00041581,53.0309,297.5736,304.9540,55.1079,0,U,45096,999,35797,.60931039E-3,.39685E-3,0
STARLINK-1184,2020-006BG,2026-07-19T11:50:51.160416,15.16020873,.00040012,53.0543,7.3948,158.1838,201.9326,0,U,45098,999,35699,.67493942E-3,.12842E-3,0
STARLINK-1193,2020-006BJ,2026-07-19T11:09:19.777536,15.72242997,.00038391,53.0453,303.7750,60.3261,299.8139,0,U,45100,999,35788,.28974794E-3,.38624E-3,0
STARLINK-1143,2020-012B,2026-07-18T18:25:25.582944,16.17835108,.00089774,53.0264,29.0960,283.8706,76.1332,0,U,45179,999,35668,.48350068E-3,.81741E-2,.11756063E-4
STARLINK-1202,2020-012F,2026-07-19T13:37:08.151744,15.37906275,.00046694,53.1540,143.9111,41.9182,318.2179,0,U,45183,999,35518,.69155033E-3,.25857E-3,0
STARLINK-1216,2020-012H,2026-07-19T16:00:03.000096,15.40460285,.00011138,53.1541,143.1668,76.5675,298.0639,0,U,45185,999,578,.24306149E-2,.100881E-2,0
STARLINK-1225,2020-012K,2026-07-19T03:28:09.936480,15.38369693,.00050446,53.1548,146.1055,47.6459,312.4972,0,U,45187,999,35510,.81553367E-3,.31055E-3,0
STARLINK-1230,2020-012M,2026-07-19T13:10:55.950816,15.38289174,.00047661,53.1533,144.3105,49.4784,310.6634,0,U,45189,999,35239,.72799069E-3,.27592E-3,0
STARLINK-1234,2020-012N,2026-07-18T18:09:20.762784,15.86629447,.00034414,53.0331,34.5703,273.5153,86.5477,0,U,45190,999,35650,.35768833E-3,.93058E-3,0
STARLINK-1269,2020-012V,2026-07-19T13:02:29.770368,15.38270910,.00034288,53.1535,144.1707,60.0796,300.0548,0,U,45197,999,35514,.72349083E-3,.27398E-3,0
STARLINK-1154,2020-012W,2026-07-19T09:54:12.182400,15.66969985,.00040519,53.0403,90.5394,104.8681,255.2784,0,U,45198,999,35582,.25917113E-3,.27599E-3,0
STARLINK-1199,2020-012Z,2026-07-19T12:21:37.499040,15.38277011,.0005431,53.1548,128.5794,58.8832,301.2704,0,U,45201,999,35538,.73351603E-3,.27796E-3,0
STARLINK-1209,2020-012AE,2026-07-19T14:29:16.460736,15.75233782,.00015834,53.0346,48.0169,251.9894,108.0953,0,U,45206,999,35554,.30256524E-3,.45988E-3,0
STARLINK-1231,2020-012AL,2026-07-19T02:48:51.969888,15.30339348,.00028801,53.0378,127.4311,113.2985,246.8317,0,U,45212,999,35529,.67261901E-3,.19703E-3,0
STARLINK-1271,2020-012AR,2026-07-19T04:23:04.348608,15.38435021,.0005067,53.1539,130.2114,63.7683,296.3841,0,U,45217,999,35533,.74856196E-3,.28524E-3,0
STARLINK-1191,2020-012AW,2026-07-19T01:11:33.137376,15.42955548,.00026696,53.1524,102.5887,48.4140,311.7095,0,U,45222,999,35571,.73401159E-3,.32531E-3,0
STARLINK-1212,2020-012AX,2026-07-19T15:03:53.582400,15.73876956,.00012004,53.0382,63.5904,219.2108,140.8824,0,U,45223,999,35628,.31514978E-3,.45161E-3,0
STARLINK-1215,2020-012AZ,2026-07-19T02:43:30.043488,15.38540956,.00051538,53.1539,104.7623,67.7171,292.4380,0,U,45225,999,35564,.74737357E-3,.28578E-3,0
STARLINK-1221,2020-012BB,2026-07-19T10:15:24.233184,15.46645032,.00028753,53.0648,3.2075,73.9204,286.2120,0,U,45227,999,35706,.1748738E-3,.8439E-4,0
STARLINK-1222,2020-012BC,2026-07-19T14:51:53.823744,15.58813668,.00015515,53.0512,66.2948,38.3000,321.8121,0,U,45228,999,35613,.39731291E-2,.325125E-2,0
STARLINK-1226,2020-012BD,2026-07-19T09:49:33.583008,15.48451520,.00047256,53.1525,96.6305,70.0341,290.1176,0,U,45229,999,35572,.65978678E-3,.35335E-3,0
STARLINK-1227,2020-012BE,2026-07-19T02:15:30.392064,15.48486720,.00045233,53.1504,98.2083,63.0421,297.1049,0,U,45230,999,35579,.71589039E-3,.3844E-3,0
STARLINK-1246,2020-012BK,2026-07-19T13:06:30.322656,15.38541869,.00050161,53.1525,143.7431,31.1650,328.9651,0,U,45235,999,35520,.69347693E-3,.26481E-3,0
STARLINK-1270,2020-012BM,2026-07-19T15:07:39.524448,15.72839558,.00009767,53.0381,65.5613,209.2884,150.8079,0,U,45237,999,35625,.29757576E-3,.40714E-3,0
STARLINK-1279,2020-019A,2026-07-19T10:55:39.630720,15.88236881,.00035548,53.0309,165.3944,62.2123,297.9261,0,U,45360,999,35139,.38474921E-3,.108664E-2,0
